STARLINK-36746          
1 67733U 26026N   26062.50001156 -.01805049  00000+0 -30746-1 0  9995
2 67733  97.2841 116.7802 0001760  82.6760 155.8979 15.54625813  4319
STARLINK-36749          
1 67734U 26026P   26062.50001156 -.01840641  00000+0 -18705-1 0  9994
2 67734  97.2839 116.8773 0001749  74.6995  38.3856 15.68534977  4317
STARLINK-36691          
1 67735U 26026Q   26062.50001156 -.01850156  00000+0 -13902-1 0  9991
2 67735  97.2842 116.9040 0001727  84.3215 100.9876 15.75638476  4459
STARLINK-36317          
1 67736U 26026R   26062.50001156 -.01851817  00000+0 -14071-1 0  9995
2 67736  97.2842 116.8992 0001734  79.0673  95.6148 15.75387135  4312
STARLINK-36330          
1 67737U 26026S   26062.50001156 -.01851764  00000+0 -13854-1 0  9995
2 67737  97.2843 116.9061 0001742  86.8979 105.0698 15.75740560  4317
STARLINK-36327          
1 67738U 26026T   26062.50001156 -.01850176  00000+0 -13665-1 0  9992
2 67738  97.2843 116.9102 0001620  85.8299 115.3433 15.76031560  4318
STARLINK-36329          
1 67739U 26026U   26062.50001156 -.01847823  00000+0 -13034-1 0  9998
2 67739  97.2856 116.9269 0001669  91.1865 161.8682 15.77062133  4312
STARLINK-36737          
1 67740U 26026V   26062.50001156 -.01846675  00000+0 -13544-1 0  9990
2 67740  97.2844 116.9125 0001665  84.8286 125.7188 15.76181768  4319
STARLINK-36740          
1 67741U 26026W   26062.50001156 -.01840035  00000+0 -16229-1 0  9998
2 67741  97.2845 116.9165 0001718  87.5726 127.4339 15.71916000  4310
STARLINK-36693          
1 67742U 26026X   26062.50001156 -.01842223  00000+0 -15794-1 0  9996
2 67742  97.2845 116.9101 0001701  86.0512 111.4984 15.72585747  4455
STARLINK-36717          
1 67743U 26026Y   26062.50001156 -.01843987  00000+0 -14436-1 0  9997
2 67743  97.2844 116.9195 0001584  85.7420 140.3513 15.74693480  4456
STARLINK-36692          
1 67744U 26026Z   26062.50001156 -.01843653  00000+0 -15231-1 0  9992
2 67744  97.2847 116.9143 0001661  83.8836 127.7723 15.73451598  4317
